{"fetched_at":"2026-07-20T18:29:28.020Z","source":"https://celestrak.org/NORAD/elements/gp.php?NAME=ICEYE&FORMAT=JSON","constellation":"iceye","records":[{"OBJECT_NAME":"ICEYE-X2","OBJECT_ID":"2018-099AU","EPOCH":"2026-07-20T07:12:29.630880","CLASSIFICATION_TYPE":"U","MEAN_MOTION":15.18073306,"ECCENTRICITY":0.00104499,"INCLINATION":97.4331,"RA_OF_ASC_NODE":254.5624,"ARG_OF_PERICENTER":177.5502,"MEAN_ANOMALY":182.5785,"EPHEMERIS_TYPE":0,"NORAD_CAT_ID":43800,"ELEMENT_SET_NO":999,"REV_AT_EPOCH":41784,"BSTAR":0.00016935068,"MEAN_MOTION_DOT":0.00003387,"MEAN_MOTION_DDOT":0},{"OBJECT_NAME":"ICEYE-X4","OBJECT_ID":"2019-038D","EPOCH":"2026-07-20T07:09:49.992192","CLASSIFICATION_TYPE":"U","MEAN_MOTION":15.29946988,"ECCENTRICITY":0.00134087,"INCLINATION":97.8746,"RA_OF_ASC_NODE":236.1723,"ARG_OF_PERICENTER":180.2168,"MEAN_ANOMALY":179.9067,"EPHEMERIS_TYPE":0,"NORAD_CAT_ID":44390,"ELEMENT_SET_NO":999,"REV_AT_EPOCH":38686,"BSTAR":0.00023155573,"MEAN_MOTION_DOT":0.00006646,"MEAN_MOTION_DDOT":0},{"OBJECT_NAME":"ICEYE-X7","OBJECT_ID":"2020-068L","EPOCH":"2026-07-20T04:39:52.356672","CLASSIFICATION_TYPE":"U","MEAN_MOTION":15.32159055,"ECCENTRICITY":0.00065947,"INCLINATION":97.7514,"RA_OF_ASC_NODE":169.2404,"ARG_OF_PERICENTER":192.859,"MEAN_ANOMALY":167.2483,"EPHEMERIS_TYPE":0,"NORAD_CAT_ID":46496,"ELEMENT_SET_NO":999,"REV_AT_EPOCH":31984,"BSTAR":0.0002152625,"MEAN_MOTION_DOT":0.00006603,"MEAN_MOTION_DDOT":0},{"OBJECT_NAME":"ICEYE-X6","OBJECT_ID":"2020-068M","EPOCH":"2026-07-20T05:50:48.765408","CLASSIFICATION_TYPE":"U","MEAN_MOTION":15.04682097,"ECCENTRICITY":0.00067654,"INCLINATION":98.0993,"RA_OF_ASC_NODE":196.5016,"ARG_OF_PERICENTER":355.4462,"MEAN_ANOMALY":4.67,"EPHEMERIS_TYPE":0,"NORAD_CAT_ID":46497,"ELEMENT_SET_NO":999,"REV_AT_EPOCH":31820,"BSTAR":0.000094113004,"MEAN_MOTION_DOT":0.00001256,"MEAN_MOTION_DDOT":0},{"OBJECT_NAME":"ICEYE-X21","OBJECT_ID":"2023-001AS","EPOCH":"2026-06-24T05:11:18.420288","CLASSIFICATION_TYPE":"U","MEAN_MOTION":16.24069885,"ECCENTRICITY":0.00123774,"INCLINATION":97.3001,"RA_OF_ASC_NODE":262.6152,"ARG_OF_PERICENTER":285.9702,"MEAN_ANOMALY":74.0225,"EPHEMERIS_TYPE":0,"NORAD_CAT_ID":55049,"ELEMENT_SET_NO":999,"REV_AT_EPOCH":19475,"BSTAR":0.000602142,"MEAN_MOTION_DOT":0.01585954,"MEAN_MOTION_DDOT":0.000002396838},{"OBJECT_NAME":"ICEYE-X25","OBJECT_ID":"2023-084AH","EPOCH":"2026-07-20T05:54:52.320096","CLASSIFICATION_TYPE":"U","MEAN_MOTION":15.63029751,"ECCENTRICITY":0.00046123,"INCLINATION":97.592,"RA_OF_ASC_NODE":349.8539,"ARG_OF_PERICENTER":169.1583,"MEAN_ANOMALY":190.9775,"EPHEMERIS_TYPE":0,"NORAD_CAT_ID":56963,"ELEMENT_SET_NO":999,"REV_AT_EPOCH":17313,"BSTAR":0.00020723746,"MEAN_MOTION_DOT":0.00018709,"MEAN_MOTION_DDOT":0},{"OBJECT_NAME":"ICEYE-X31","OBJECT_ID":"2023-174AJ","EPOCH":"2026-07-20T06:09:03.101760","CLASSIFICATION_TYPE":"U","MEAN_MOTION":15.35274337,"ECCENTRICITY":0.00032081,"INCLINATION":97.3763,"RA_OF_ASC_NODE":277.0087,"ARG_OF_PERICENTER":172.7021,"MEAN_ANOMALY":187.427,"EPHEMERIS_TYPE":0,"NORAD_CAT_ID":58288,"ELEMENT_SET_NO":999,"REV_AT_EPOCH":14982,"BSTAR":0.00029735988,"MEAN_MOTION_DOT":0.00010108,"MEAN_MOTION_DDOT":0},{"OBJECT_NAME":"ICEYE-X34","OBJECT_ID":"2023-174AQ","EPOCH":"2026-07-19T18:39:37.719360","CLASSIFICATION_TYPE":"U","MEAN_MOTION":15.72318528,"ECCENTRICITY":0.00021472,"INCLINATION":97.3849,"RA_OF_ASC_NODE":293.7111,"ARG_OF_PERICENTER":222.6729,"MEAN_ANOMALY":137.4368,"EPHEMERIS_TYPE":0,"NORAD_CAT_ID":58294,"ELEMENT_SET_NO":999,"REV_AT_EPOCH":15085,"BSTAR":0.00085214554,"MEAN_MOTION_DOT":0.00113841,"MEAN_MOTION_DDOT":0},{"OBJECT_NAME":"ICEYE-X35","OBJECT_ID":"2023-174AY","EPOCH":"2026-07-20T06:33:30.441600","CLASSIFICATION_TYPE":"U","MEAN_MOTION":15.55504557,"ECCENTRICITY":0.00073143,"INCLINATION":97.3774,"RA_OF_ASC_NODE":286.8334,"ARG_OF_PERICENTER":91.1323,"MEAN_ANOMALY":269.0769,"EPHEMERIS_TYPE":0,"NORAD_CAT_ID":58302,"ELEMENT_SET_NO":999,"REV_AT_EPOCH":15048,"BSTAR":0.00048577835,"MEAN_MOTION_DOT":0.00033195,"MEAN_MOTION_DDOT":0},{"OBJECT_NAME":"ICEYE-X38","OBJECT_ID":"2024-043C","EPOCH":"2026-07-20T06:01:58.380960","CLASSIFICATION_TYPE":"U","MEAN_MOTION":15.13115992,"ECCENTRICITY":0.00019136,"INCLINATION":97.8445,"RA_OF_ASC_NODE":345.9212,"ARG_OF_PERICENTER":5.4485,"MEAN_ANOMALY":354.6766,"EPHEMERIS_TYPE":0,"NORAD_CAT_ID":59100,"ELEMENT_SET_NO":999,"REV_AT_EPOCH":11667,"BSTAR":0.00012905656,"MEAN_MOTION_DOT":0.00002215,"MEAN_MOTION_DDOT":0},{"OBJECT_NAME":"ICEYE-X37","OBJECT_ID":"2024-043E","EPOCH":"2026-07-20T04:44:39.383520","CLASSIFICATION_TYPE":"U","MEAN_MOTION":15.06312202,"ECCENTRICITY":0.00139418,"INCLINATION":97.8349,"RA_OF_ASC_NODE":338.7284,"ARG_OF_PERICENTER":255.5263,"MEAN_ANOMALY":104.4417,"EPHEMERIS_TYPE":0,"NORAD_CAT_ID":59102,"ELEMENT_SET_NO":999,"REV_AT_EPOCH":13005,"BSTAR":0.00016745274,"MEAN_MOTION_DOT":0.000024,"MEAN_MOTION_DDOT":0},{"OBJECT_NAME":"ICEYE-X36","OBJECT_ID":"2024-043F","EPOCH":"2026-07-20T04:22:00.604416","CLASSIFICATION_TYPE":"U","MEAN_MOTION":15.07257106,"ECCENTRICITY":0.00056761,"INCLINATION":97.8408,"RA_OF_ASC_NODE":339.8534,"ARG_OF_PERICENTER":194.9379,"MEAN_ANOMALY":165.1681,"EPHEMERIS_TYPE":0,"NORAD_CAT_ID":59103,"ELEMENT_SET_NO":999,"REV_AT_EPOCH":13011,"BSTAR":0.00014897221,"MEAN_MOTION_DOT":0.0000218,"MEAN_MOTION_DDOT":0},{"OBJECT_NAME":"ICEYE-X43","OBJECT_ID":"2024-149BZ","EPOCH":"2026-07-20T02:55:40.109664","CLASSIFICATION_TYPE":"U","MEAN_MOTION":14.99793887,"ECCENTRICITY":0.00063583,"INCLINATION":97.6782,"RA_OF_ASC_NODE":277.6445,"ARG_OF_PERICENTER":325.2771,"MEAN_ANOMALY":34.8036,"EPHEMERIS_TYPE":0,"NORAD_CAT_ID":60539,"ELEMENT_SET_NO":999,"REV_AT_EPOCH":10505,"BSTAR":0.000062248652,"MEAN_MOTION_DOT":0.00000711,"MEAN_MOTION_DDOT":0},{"OBJECT_NAME":"ICEYE-X39","OBJECT_ID":"2024-149CG","EPOCH":"2026-07-20T02:20:31.015680","CLASSIFICATION_TYPE":"U","MEAN_MOTION":15.00095962,"ECCENTRICITY":0.00067771,"INCLINATION":97.6799,"RA_OF_ASC_NODE":277.6798,"ARG_OF_PERICENTER":32.7311,"MEAN_ANOMALY":327.4331,"EPHEMERIS_TYPE":0,"NORAD_CAT_ID":60546,"ELEMENT_SET_NO":999,"REV_AT_EPOCH":10505,"BSTAR":0.00019374217,"MEAN_MOTION_DOT":0.00002357,"MEAN_MOTION_DDOT":0},{"OBJECT_NAME":"ICEYE-X33","OBJECT_ID":"2024-149CJ","EPOCH":"2026-07-20T02:28:44.596416","CLASSIFICATION_TYPE":"U","MEAN_MOTION":15.00910825,"ECCENTRICITY":0.00018464,"INCLINATION":97.7376,"RA_OF_ASC_NODE":280.0819,"ARG_OF_PERICENTER":69.3529,"MEAN_ANOMALY":290.7893,"EPHEMERIS_TYPE":0,"NORAD_CAT_ID":60548,"ELEMENT_SET_NO":999,"REV_AT_EPOCH":10514,"BSTAR":0.00021347786,"MEAN_MOTION_DOT":0.00002658,"MEAN_MOTION_DDOT":0}]}
