ICEYE-X2                
1 43800U 18099AU  26201.30034295  .00003387  00000+0  16935-3 0  9996
2 43800  97.4331 254.5624 0010449 177.5502 182.5785 15.18073306417841
ICEYE-X4                
1 44390U 19038D   26201.29849528  .00006646  00000+0  23156-3 0  9990
2 44390  97.8746 236.1723 0013408 180.2168 179.9067 15.29946988386860
ICEYE-X7                
1 46496U 20068L   26201.19435598  .00006603  00000+0  21526-3 0  9993
2 46496  97.7514 169.2404 0006594 192.8590 167.2483 15.32159055319840
ICEYE-X6                
1 46497U 20068M   26201.24361997  .00001256  00000+0  94113-4 0  9993
2 46497  98.0993 196.5016 0006765 355.4462   4.6700 15.04682097318204
ICEYE-X21               
1 55049U 23001AS  26175.21618542  .01585954  23968-5  60214-3 0  9995
2 55049  97.3001 262.6152 0012377 285.9702  74.0225 16.24069885194757
ICEYE-X25               
1 56963U 23084AH  26201.24643889  .00018709  00000+0  20724-3 0  9993
2 56963  97.5920 349.8539 0004612 169.1583 190.9775 15.63029751173132
ICEYE-X31               
1 58288U 23174AJ  26201.25628590  .00010108  00000+0  29736-3 0  9995
2 58288  97.3763 277.0087 0003208 172.7021 187.4270 15.35274337149825
ICEYE-X34               
1 58294U 23174AQ  26200.77751990  .00113841  00000+0  85215-3 0  9991
2 58294  97.3849 293.7111 0002147 222.6729 137.4368 15.72318528150851
ICEYE-X35               
1 58302U 23174AY  26201.27326900  .00033195  00000+0  48578-3 0  9990
2 58302  97.3774 286.8334 0007314  91.1323 269.0769 15.55504557150484
ICEYE-X38               
1 59100U 24043C   26201.25137015  .00002215  00000+0  12906-3 0  9993
2 59100  97.8445 345.9212 0001913   5.4485 354.6766 15.13115992116675
ICEYE-X37               
1 59102U 24043E   26201.19767805  .00002400  00000+0  16745-3 0  9995
2 59102  97.8349 338.7284 0013941 255.5263 104.4417 15.06312202130052
ICEYE-X36               
1 59103U 24043F   26201.18195144  .00002180  00000+0  14897-3 0  9997
2 59103  97.8408 339.8534 0005676 194.9379 165.1681 15.07257106130115
ICEYE-X43               
1 60539U 24149BZ  26201.12199201  .00000711  00000+0  62249-4 0  9994
2 60539  97.6782 277.6445 0006358 325.2771  34.8036 14.99793887105058
ICEYE-X39               
1 60546U 24149CG  26201.09758120  .00002357  00000+0  19374-3 0  9997
2 60546  97.6799 277.6798 0006777  32.7311 327.4331 15.00095962105051
ICEYE-X33               
1 60548U 24149CJ  26201.10329394  .00002658  00000+0  21348-3 0  9996
2 60548  97.7376 280.0819 0001846  69.3529 290.7893 15.00910825105145
